{"type": "FeatureCollection", "features": [ {"type": "Feature", "properties": {"norad_id": 66727, "name": "FLOCK 4H-24", "group": "last-30-days", "lat": -9.95055897121079, "lon": -109.41923367414724, "alt_km": 516.9421702020436, "timestamp": "2025-12-26T08:37:53.290818+00:00", "meta": {"OBJECT_NAME": "FLOCK 4H-24", "OBJECT_ID": "2025-276BP", "EPOCH": "2025-12-26T03:02:55.487040", "MEAN_MOTION": 15.17365298, "ECCENTRICITY": 0.0002889, "INCLINATION": 97.4435, "RA_OF_ASC_NODE": 71.6665, "ARG_OF_PERICENTER": 245.801, "MEAN_ANOMALY": 114.2921, "EPHEMERIS_TYPE": 0, "CLASSIFICATION_TYPE": "U", "NORAD_CAT_ID": 66727, "ELEMENT_SET_NO": 999, "REV_AT_EPOCH": 415, "BSTAR": 0.00027456, "MEAN_MOTION_DOT": 5.416e-05, "MEAN_MOTION_DDOT": 0}, "tle": {"line1": "1 66727U 25276BP  25360.12703110  .00005416  00000+0  27456-3 0  9993", "line2": "2 66727  97.4435  71.6665 0002889 245.8010 114.2921 15.17365298  4157"}}, "geometry": {"type": "Point", "coordinates": [-109.41923367414724, -9.95055897121079]}}, {"type": "Feature", "properties": {"norad_id": 66728, "name": "FLOCK 4H-25", "group": "last-30-days", "lat": -79.07937449788963, "lon": 114.53958264413279, "alt_km": 519.6348822969785, "timestamp": "2025-12-26T08:37:53.290830+00:00", "meta": {"OBJECT_NAME": "FLOCK 4H-25", "OBJECT_ID": "2025-276BQ", "EPOCH": "2025-12-26T04:14:49.039872", "MEAN_MOTION": 15.18253226, "ECCENTRICITY": 0.0001754, "INCLINATION": 97.4391, "RA_OF_ASC_NODE": 71.7342, "ARG_OF_PERICENTER": 114.6395, "MEAN_ANOMALY": 245.5022, "EPHEMERIS_TYPE": 0, "CLASSIFICATION_TYPE": "U", "NORAD_CAT_ID": 66728, "ELEMENT_SET_NO": 999, "REV_AT_EPOCH": 344, "BSTAR": 0.00028501, "MEAN_MOTION_DOT": 5.771e-05, "MEAN_MOTION_DDOT": 0}, "tle": {"line1": "1 66728U 25276BQ  25360.17695648  .00005771  00000+0  28501-3 0  9991", "line2": "2 66728  97.4391  71.7342 0001754 114.6395 245.5022 15.18253226  3440"}}, "geometry": {"type": "Point", "coordinates": [114.53958264413279, -79.07937449788963]}}, {"type": "Feature", "properties": {"norad_id": 66729, "name": "FLOCK 4H-26", "group": "last-30-days", "lat": 9.424937338581763, "lon": -106.88990933192876, "alt_km": 515.4165568627495, "timestamp": "2025-12-26T08:37:53.290841+00:00", "meta": {"OBJECT_NAME": "FLOCK 4H-26", "OBJECT_ID": "2025-276BR", "EPOCH": "2025-12-26T03:08:02.126688", "MEAN_MOTION": 15.17192716, "ECCENTRICITY": 0.0003675, "INCLINATION": 97.4386, "RA_OF_ASC_NODE": 71.6425, "ARG_OF_PERICENTER": 245.7147, "MEAN_ANOMALY": 114.3703, "EPHEMERIS_TYPE": 0, "CLASSIFICATION_TYPE": "U", "NORAD_CAT_ID": 66729, "ELEMENT_SET_NO": 999, "REV_AT_EPOCH": 415, "BSTAR": 0.00043993, "MEAN_MOTION_DOT": 8.679e-05, "MEAN_MOTION_DDOT": 0}, "tle": {"line1": "1 66729U 25276BR  25360.13058017  .00008679  00000+0  43993-3 0  9993", "line2": "2 66729  97.4386  71.6425 0003675 245.7147 114.3703 15.17192716  4154"}}, "geometry": {"type": "Point", "coordinates": [-106.88990933192876, 9.424937338581763]}}, {"type": "Feature", "properties": {"norad_id": 66730, "name": "FLOCK 4H-27", "group": "last-30-days", "lat": -80.90227550360854, "lon": -162.75557585017523, "alt_km": 519.5825320220238, "timestamp": "2025-12-26T08:37:53.290851+00:00", "meta": {"OBJECT_NAME": "FLOCK 4H-27", "OBJECT_ID": "2025-276BS", "EPOCH": "2025-12-26T04:18:17.959392", "MEAN_MOTION": 15.18123494, "ECCENTRICITY": 0.0001385, "INCLINATION": 97.4366, "RA_OF_ASC_NODE": 71.7221, "ARG_OF_PERICENTER": 127.2079, "MEAN_ANOMALY": 232.9281, "EPHEMERIS_TYPE": 0, "CLASSIFICATION_TYPE": "U", "NORAD_CAT_ID": 66730, "ELEMENT_SET_NO": 999, "REV_AT_EPOCH": 416, "BSTAR": 0.00030927, "MEAN_MOTION_DOT": 6.245e-05, "MEAN_MOTION_DDOT": 0}, "tle": {"line1": "1 66730U 25276BS  25360.17937453  .00006245  00000+0  30927-3 0  9999", "line2": "2 66730  97.4366  71.7221 0001385 127.2079 232.9281 15.18123494  4160"}}, "geometry": {"type": "Point", "coordinates": [-162.75557585017523, -80.90227550360854]}}, {"type": "Feature", "properties": {"norad_id": 66731, "name": "FLOCK 4H-28", "group": "last-30-days", "lat": 7.885230618999553, "lon": -107.09955484466047, "alt_km": 515.7316079624406, "timestamp": "2025-12-26T08:37:53.290862+00:00", "meta": {"OBJECT_NAME": "FLOCK 4H-28", "OBJECT_ID": "2025-276BT", "EPOCH": "2025-12-26T01:32:39.046848", "MEAN_MOTION": 15.17174832, "ECCENTRICITY": 0.0003255, "INCLINATION": 97.4376, "RA_OF_ASC_NODE": 71.5739, "ARG_OF_PERICENTER": 246.397, "MEAN_ANOMALY": 113.6922, "EPHEMERIS_TYPE": 0, "CLASSIFICATION_TYPE": "U", "NORAD_CAT_ID": 66731, "ELEMENT_SET_NO": 999, "REV_AT_EPOCH": 414, "BSTAR": 0.00032029, "MEAN_MOTION_DOT": 6.295e-05, "MEAN_MOTION_DDOT": 0}, "tle": {"line1": "1 66731U 25276BT  25360.06434082  .00006295  00000+0  32029-3 0  9998", "line2": "2 66731  97.4376  71.5739 0003255 246.3970 113.6922 15.17174832  4141"}}, "geometry": {"type": "Point", "coordinates": [-107.09955484466047, 7.885230618999553]}}, {"type": "Feature", "properties": {"norad_id": 66732, "name": "FLOCK 4H-29", "group": "last-30-days", "lat": -6.01296358495035, "lon": -108.92341085361885, "alt_km": 517.4329074840753, "timestamp": "2025-12-26T08:37:53.290872+00:00", "meta": {"OBJECT_NAME": "FLOCK 4H-29", "OBJECT_ID": "2025-276BU", "EPOCH": "2025-12-26T03:03:58.062240", "MEAN_MOTION": 15.17326528, "ECCENTRICITY": 0.000199, "INCLINATION": 97.4368, "RA_OF_ASC_NODE": 71.6373, "ARG_OF_PERICENTER": 263.8004, "MEAN_ANOMALY": 96.3003, "EPHEMERIS_TYPE": 0, "CLASSIFICATION_TYPE": "U", "NORAD_CAT_ID": 66732, "ELEMENT_SET_NO": 999, "REV_AT_EPOCH": 415, "BSTAR": 0.00065654, "MEAN_MOTION_DOT": 0.00013041, "MEAN_MOTION_DDOT": 0}, "tle": {"line1": "1 66732U 25276BU  25360.12775535  .00013041  00000+0  65654-3 0  9994", "line2": "2 66732  97.4368  71.6373 0001990 263.8004  96.3003 15.17326528  4153"}}, "geometry": {"type": "Point", "coordinates": [-108.92341085361885, -6.01296358495035]}}, {"type": "Feature", "properties": {"norad_id": 66733, "name": "FLOCK 4H-30", "group": "last-30-days", "lat": 0.5187203617998872, "lon": -108.04466564456617, "alt_km": 516.2098558700745, "timestamp": "2025-12-26T08:37:53.290884+00:00", "meta": {"OBJECT_NAME": "FLOCK 4H-30", "OBJECT_ID": "2025-276BV", "EPOCH": "2025-12-26T01:30:43.503264", "MEAN_MOTION": 15.17290542, "ECCENTRICITY": 0.0003154, "INCLINATION": 97.443, "RA_OF_ASC_NODE": 71.5961, "ARG_OF_PERICENTER": 248.0816, "MEAN_ANOMALY": 112.0082, "EPHEMERIS_TYPE": 0, "CLASSIFICATION_TYPE": "U", "NORAD_CAT_ID": 66733, "ELEMENT_SET_NO": 999, "REV_AT_EPOCH": 414, "BSTAR": 0.00043041, "MEAN_MOTION_DOT": 8.513e-05, "MEAN_MOTION_DDOT": 0}, "tle": {"line1": "1 66733U 25276BV  25360.06300351  .00008513  00000+0  43041-3 0  9992", "line2": "2 66733  97.4430  71.5961 0003154 248.0816 112.0082 15.17290542  4144"}}, "geometry": {"type": "Point", "coordinates": [-108.04466564456617, 0.5187203617998872]}}, {"type": "Feature", "properties": {"norad_id": 66734, "name": "FLOCK 4H-31", "group": "last-30-days", "lat": 0.40620563169071777, "lon": -108.08509543486062, "alt_km": 516.7670641157856, "timestamp": "2025-12-26T08:37:53.290894+00:00", "meta": {"OBJECT_NAME": "FLOCK 4H-31", "OBJECT_ID": "2025-276BW", "EPOCH": "2025-12-26T03:05:39.242688", "MEAN_MOTION": 15.17242621, "ECCENTRICITY": 0.000245, "INCLINATION": 97.4366, "RA_OF_ASC_NODE": 71.6354, "ARG_OF_PERICENTER": 255.3394, "MEAN_ANOMALY": 104.7568, "EPHEMERIS_TYPE": 0, "CLASSIFICATION_TYPE": "U", "NORAD_CAT_ID": 66734, "ELEMENT_SET_NO": 999, "REV_AT_EPOCH": 415, "BSTAR": 0.00030386, "MEAN_MOTION_DOT": 5.98e-05, "MEAN_MOTION_DDOT": 0}, "tle": {"line1": "1 66734U 25276BW  25360.12892642  .00005980  00000+0  30386-3 0  9992", "line2": "2 66734  97.4366  71.6354 0002450 255.3394 104.7568 15.17242621  4153"}}, "geometry": {"type": "Point", "coordinates": [-108.08509543486062, 0.40620563169071777]}}, {"type": "Feature", "properties": {"norad_id": 66735, "name": "FLOCK 4H-32", "group": "last-30-days", "lat": 2.4252471544937926, "lon": -107.79964998157622, "alt_km": 515.816435836773, "timestamp": "2025-12-26T08:37:53.290907+00:00", "meta": {"OBJECT_NAME": "FLOCK 4H-32", "OBJECT_ID": "2025-276BX", "EPOCH": "2025-12-26T01:31:13.428768", "MEAN_MOTION": 15.1726705, "ECCENTRICITY": 0.0003541, "INCLINATION": 97.4422, "RA_OF_ASC_NODE": 71.5921, "ARG_OF_PERICENTER": 243.2948, "MEAN_ANOMALY": 116.7923, "EPHEMERIS_TYPE": 0, "CLASSIFICATION_TYPE": "U", "NORAD_CAT_ID": 66735, "ELEMENT_SET_NO": 999, "REV_AT_EPOCH": 414, "BSTAR": 0.00035347, "MEAN_MOTION_DOT": 6.974e-05, "MEAN_MOTION_DDOT": 0}, "tle": {"line1": "1 66735U 25276BX  25360.06334987  .00006974  00000+0  35347-3 0  9995", "line2": "2 66735  97.4422  71.5921 0003541 243.2948 116.7923 15.17267050  4149"}}, "geometry": {"type": "Point", "coordinates": [-107.79964998157622, 2.4252471544937926]}}, {"type": "Feature", "properties": {"norad_id": 66736, "name": "FLOCK 4H-33", "group": "last-30-days", "lat": -76.20553430374412, "lon": 104.09348611026765, "alt_km": 519.5105674451543, "timestamp": "2025-12-26T08:37:53.290917+00:00", "meta": {"OBJECT_NAME": "FLOCK 4H-33", "OBJECT_ID": "2025-276BY", "EPOCH": "2025-12-26T04:13:52.650912", "MEAN_MOTION": 15.18340488, "ECCENTRICITY": 0.0002887, "INCLINATION": 97.4419, "RA_OF_ASC_NODE": 71.7463, "ARG_OF_PERICENTER": 150.7218, "MEAN_ANOMALY": 209.4179, "EPHEMERIS_TYPE": 0, "CLASSIFICATION_TYPE": "U", "NORAD_CAT_ID": 66736, "ELEMENT_SET_NO": 999, "REV_AT_EPOCH": 416, "BSTAR": 0.0004823, "MEAN_MOTION_DOT": 9.842e-05, "MEAN_MOTION_DDOT": 0}, "tle": {"line1": "1 66736U 25276BY  25360.17630383  .00009842  00000+0  48230-3 0  9999", "line2": "2 66736  97.4419  71.7463 0002887 150.7218 209.4179 15.18340488  4166"}}, "geometry": {"type": "Point", "coordinates": [104.09348611026765, -76.20553430374412]}}]}